[{"OBJECT_NAME":"ORBCOMM FM117","OBJECT_ID":"2015-081K","EPOCH":"2026-03-08T23:37:11.280576","MEAN_MOTION":14.58734322,"ECCENTRICITY":0.00025428,"INCLINATION":47.0015,"RA_OF_ASC_NODE":294.572,"ARG_OF_PERICENTER":102.3164,"MEAN_ANOMALY":257.8006,"EPHEMERIS_TYPE":0,"CLASSIFICATION_TYPE":"U","NORAD_CAT_ID":41188,"ELEMENT_SET_NO":999,"REV_AT_EPOCH":54549,"BSTAR":0.00024145216,"MEAN_MOTION_DOT":9.67e-6,"MEAN_MOTION_DDOT":0},{"OBJECT_NAME":"COSMOS 2251 DEB","OBJECT_ID":"1993-036APJ","EPOCH":"2026-03-02T03:29:02.797728","MEAN_MOTION":14.60920017,"ECCENTRICITY":0.00181559,"INCLINATION":74.0611,"RA_OF_ASC_NODE":348.6512,"ARG_OF_PERICENTER":22.9167,"MEAN_ANOMALY":337.2805,"EPHEMERIS_TYPE":0,"CLASSIFICATION_TYPE":"U","NORAD_CAT_ID":35667,"ELEMENT_SET_NO":999,"REV_AT_EPOCH":71962,"BSTAR":0.0011411972,"MEAN_MOTION_DOT":5.576e-5,"MEAN_MOTION_DDOT":0}]
